[{"OBJECT_NAME":"HJS-7B","OBJECT_ID":"2025-209B","EPOCH":"2026-03-09T21:59:22.593408","MEAN_MOTION":13.41451936,"ECCENTRICITY":8.722e-5,"INCLINATION":50.0014,"RA_OF_ASC_NODE":2.9752,"ARG_OF_PERICENTER":190.3552,"MEAN_ANOMALY":169.7307,"EPHEMERIS_TYPE":0,"CLASSIFICATION_TYPE":"U","NORAD_CAT_ID":65618,"ELEMENT_SET_NO":999,"REV_AT_EPOCH":2431,"BSTAR":0.00014651789,"MEAN_MOTION_DOT":-4.6e-7,"MEAN_MOTION_DDOT":0},{"OBJECT_NAME":"HULIANWANG DIGUI-139","OBJECT_ID":"2026-007C","EPOCH":"2026-03-05T02:06:34.555680","MEAN_MOTION":13.41969009,"ECCENTRICITY":0.0008848,"INCLINATION":50.0424,"RA_OF_ASC_NODE":99.6398,"ARG_OF_PERICENTER":294.9043,"MEAN_ANOMALY":65.0915,"EPHEMERIS_TYPE":0,"CLASSIFICATION_TYPE":"U","NORAD_CAT_ID":67437,"ELEMENT_SET_NO":999,"REV_AT_EPOCH":693,"BSTAR":0.00020824533,"MEAN_MOTION_DOT":-1.1e-7,"MEAN_MOTION_DDOT":0}]
